{"type": "FeatureCollection", "features": [ {"type": "Feature", "properties": {"norad_id": 52912, "name": "GAOFEN-12 03", "group": "resource", "lat": -75.7689439051737, "lon": 29.804973588440756, "alt_km": 639.0521324442852, "timestamp": "2025-12-21T14:40:47.568574+00:00", "meta": {"OBJECT_NAME": "GAOFEN-12 03", "OBJECT_ID": "2022-069A", "EPOCH": "2025-12-21T07:01:29.666208", "MEAN_MOTION": 14.79626029, "ECCENTRICITY": 0.00019619, "INCLINATION": 97.8488, "RA_OF_ASC_NODE": 242.4435, "ARG_OF_PERICENTER": 51.4637, "MEAN_ANOMALY": 308.6751, "EPHEMERIS_TYPE": 0, "CLASSIFICATION_TYPE": "U", "NORAD_CAT_ID": 52912, "ELEMENT_SET_NO": 999, "REV_AT_EPOCH": 18830, "BSTAR": 5.5347233e-05, "MEAN_MOTION_DOT": 3.64e-06, "MEAN_MOTION_DDOT": 0}, "tle": {"line1": "1 52912U 22069A   25355.29270447  .00000364  00000+0  55347-4 0  9993", "line2": "2 52912  97.8488 242.4435 0001961  51.4637 308.6751 14.79626029188308"}}, "geometry": {"type": "Point", "coordinates": [29.804973588440756, -75.7689439051737]}}, {"type": "Feature", "properties": {"norad_id": 54754, "name": "SWOT", "group": "resource", "lat": -42.18773445577499, "lon": 106.50538574984427, "alt_km": 899.8088177820418, "timestamp": "2025-12-21T14:40:47.568584+00:00", "meta": {"OBJECT_NAME": "SWOT", "OBJECT_ID": "2022-173A", "EPOCH": "2025-12-21T05:02:31.125408", "MEAN_MOTION": 14.00168021, "ECCENTRICITY": 3.613e-05, "INCLINATION": 77.6109, "RA_OF_ASC_NODE": 275.556, "ARG_OF_PERICENTER": 89.107, "MEAN_ANOMALY": 271.0123, "EPHEMERIS_TYPE": 0, "CLASSIFICATION_TYPE": "U", "NORAD_CAT_ID": 54754, "ELEMENT_SET_NO": 999, "REV_AT_EPOCH": 15424, "BSTAR": 4.440652e-06, "MEAN_MOTION_DOT": 4e-08, "MEAN_MOTION_DDOT": 0}, "tle": {"line1": "1 54754U 22173A   25355.21008247  .00000004  00000+0  44407-5 0  9991", "line2": "2 54754  77.6109 275.5560 0000361  89.1070 271.0123 14.00168021154247"}}, "geometry": {"type": "Point", "coordinates": [106.50538574984427, -42.18773445577499]}}, {"type": "Feature", "properties": {"norad_id": 57654, "name": "GAOFEN-12 04", "group": "resource", "lat": 69.16749764512245, "lon": -110.20447180759062, "alt_km": 622.6281561042815, "timestamp": "2025-12-21T14:40:47.568613+00:00", "meta": {"OBJECT_NAME": "GAOFEN-12 04", "OBJECT_ID": "2023-123A", "EPOCH": "2025-12-21T06:14:49.826688", "MEAN_MOTION": 14.79722659, "ECCENTRICITY": 0.00012293, "INCLINATION": 97.9127, "RA_OF_ASC_NODE": 270.8884, "ARG_OF_PERICENTER": 77.6834, "MEAN_ANOMALY": 282.4516, "EPHEMERIS_TYPE": 0, "CLASSIFICATION_TYPE": "U", "NORAD_CAT_ID": 57654, "ELEMENT_SET_NO": 999, "REV_AT_EPOCH": 12631, "BSTAR": 0.00014499506, "MEAN_MOTION_DOT": 1.038e-05, "MEAN_MOTION_DDOT": 0}, "tle": {"line1": "1 57654U 23123A   25355.26029892  .00001038  00000+0  14500-3 0  9990", "line2": "2 57654  97.9127 270.8884 0001229  77.6834 282.4516 14.79722659126313"}}, "geometry": {"type": "Point", "coordinates": [-110.20447180759062, 69.16749764512245]}}, {"type": "Feature", "properties": {"norad_id": 59065, "name": "PARS 1", "group": "resource", "lat": -80.31897710067496, "lon": 96.50809047501598, "alt_km": 456.4125864937532, "timestamp": "2025-12-21T14:40:47.568625+00:00", "meta": {"OBJECT_NAME": "PARS 1", "OBJECT_ID": "2024-039Q", "EPOCH": "2025-12-21T05:44:49.708608", "MEAN_MOTION": 15.41153512, "ECCENTRICITY": 0.0011974, "INCLINATION": 97.4643, "RA_OF_ASC_NODE": 326.3533, "ARG_OF_PERICENTER": 46.4033, "MEAN_ANOMALY": 313.8205, "EPHEMERIS_TYPE": 0, "CLASSIFICATION_TYPE": "U", "NORAD_CAT_ID": 59065, "ELEMENT_SET_NO": 999, "REV_AT_EPOCH": 10119, "BSTAR": 0.00023552564, "MEAN_MOTION_DOT": 9.698e-05, "MEAN_MOTION_DDOT": 0}, "tle": {"line1": "1 59065U 24039Q   25355.23946422  .00009698  00000+0  23553-3 0  9997", "line2": "2 59065  97.4643 326.3533 0011974  46.4033 313.8205 15.41153512101199"}}, "geometry": {"type": "Point", "coordinates": [96.50809047501598, -80.31897710067496]}}, {"type": "Feature", "properties": {"norad_id": 59371, "name": "RESURS-P 4", "group": "resource", "lat": 58.878438880018486, "lon": 133.94291071186808, "alt_km": 463.3959550651789, "timestamp": "2025-12-21T14:40:47.568635+00:00", "meta": {"OBJECT_NAME": "RESURS-P 4", "OBJECT_ID": "2024-061A", "EPOCH": "2025-12-21T06:19:10.386624", "MEAN_MOTION": 15.32147977, "ECCENTRICITY": 9.674e-05, "INCLINATION": 97.2559, "RA_OF_ASC_NODE": 301.4188, "ARG_OF_PERICENTER": 63.9997, "MEAN_ANOMALY": 296.1344, "EPHEMERIS_TYPE": 0, "CLASSIFICATION_TYPE": "U", "NORAD_CAT_ID": 59371, "ELEMENT_SET_NO": 999, "REV_AT_EPOCH": 9651, "BSTAR": 0.00010383369, "MEAN_MOTION_DOT": 3.147e-05, "MEAN_MOTION_DDOT": 0}, "tle": {"line1": "1 59371U 24061A   25355.26331466  .00003147  00000+0  10383-3 0  9991", "line2": "2 59371  97.2559 301.4188 0000967  63.9997 296.1344 15.32147977 96510"}}, "geometry": {"type": "Point", "coordinates": [133.94291071186808, 58.878438880018486]}}, {"type": "Feature", "properties": {"norad_id": 59625, "name": "LEGION 1", "group": "resource", "lat": -27.91632788383294, "lon": -113.83920442165925, "alt_km": 521.2663382663031, "timestamp": "2025-12-21T14:40:47.568645+00:00", "meta": {"OBJECT_NAME": "LEGION 1", "OBJECT_ID": "2024-081A", "EPOCH": "2025-12-21T04:15:49.002336", "MEAN_MOTION": 15.16554369, "ECCENTRICITY": 0.00036203, "INCLINATION": 97.5206, "RA_OF_ASC_NODE": 69.7443, "ARG_OF_PERICENTER": 279.0689, "MEAN_ANOMALY": 81.0134, "EPHEMERIS_TYPE": 0, "CLASSIFICATION_TYPE": "U", "NORAD_CAT_ID": 59625, "ELEMENT_SET_NO": 999, "REV_AT_EPOCH": 9055, "BSTAR": 0.00017556066, "MEAN_MOTION_DOT": 3.358e-05, "MEAN_MOTION_DDOT": 0}, "tle": {"line1": "1 59625U 24081A   25355.17765049  .00003358  00000+0  17556-3 0  9996", "line2": "2 59625  97.5206  69.7443 0003620 279.0689  81.0134 15.16554369 90554"}}, "geometry": {"type": "Point", "coordinates": [-113.83920442165925, -27.91632788383294]}}, {"type": "Feature", "properties": {"norad_id": 59626, "name": "LEGION 2", "group": "resource", "lat": 27.956979546962557, "lon": 66.24173219469232, "alt_km": 517.7430015883128, "timestamp": "2025-12-21T14:40:47.568655+00:00", "meta": {"OBJECT_NAME": "LEGION 2", "OBJECT_ID": "2024-081B", "EPOCH": "2025-12-21T05:03:16.647840", "MEAN_MOTION": 15.16569592, "ECCENTRICITY": 0.00056675, "INCLINATION": 97.5208, "RA_OF_ASC_NODE": 69.8649, "ARG_OF_PERICENTER": 256.7824, "MEAN_ANOMALY": 103.2777, "EPHEMERIS_TYPE": 0, "CLASSIFICATION_TYPE": "U", "NORAD_CAT_ID": 59626, "ELEMENT_SET_NO": 999, "REV_AT_EPOCH": 9056, "BSTAR": 0.00020450697, "MEAN_MOTION_DOT": 3.925e-05, "MEAN_MOTION_DDOT": 0}, "tle": {"line1": "1 59626U 24081B   25355.21060935  .00003925  00000+0  20451-3 0  9992", "line2": "2 59626  97.5208  69.8649 0005667 256.7824 103.2777 15.16569592 90567"}}, "geometry": {"type": "Point", "coordinates": [66.24173219469232, 27.956979546962557]}}, {"type": "Feature", "properties": {"norad_id": 60182, "name": "ALOS-4 (DAICHI-4)", "group": "resource", "lat": -55.61642177468411, "lon": 102.0739145870242, "alt_km": 638.912833709569, "timestamp": "2025-12-21T14:40:47.568665+00:00", "meta": {"OBJECT_NAME": "ALOS-4 (DAICHI-4)", "OBJECT_ID": "2024-123A", "EPOCH": "2025-12-20T19:27:23.067360", "MEAN_MOTION": 14.79476697, "ECCENTRICITY": 0.00013881, "INCLINATION": 97.9224, "RA_OF_ASC_NODE": 89.5428, "ARG_OF_PERICENTER": 101.339, "MEAN_ANOMALY": 258.7977, "EPHEMERIS_TYPE": 0, "CLASSIFICATION_TYPE": "U", "NORAD_CAT_ID": 60182, "ELEMENT_SET_NO": 999, "REV_AT_EPOCH": 7950, "BSTAR": 0.00018374076, "MEAN_MOTION_DOT": 1.321e-05, "MEAN_MOTION_DDOT": 0}, "tle": {"line1": "1 60182U 24123A   25354.81068365  .00001321  00000+0  18374-3 0  9997", "line2": "2 60182  97.9224  89.5428 0001388 101.3390 258.7977 14.79476697 79501"}}, "geometry": {"type": "Point", "coordinates": [102.0739145870242, -55.61642177468411]}}, {"type": "Feature", "properties": {"norad_id": 60452, "name": "LEGION 3", "group": "resource", "lat": 30.32298620233807, "lon": 46.74683200115467, "alt_km": 517.8789664746582, "timestamp": "2025-12-21T14:40:47.568675+00:00", "meta": {"OBJECT_NAME": "LEGION 3", "OBJECT_ID": "2024-146A", "EPOCH": "2025-12-21T04:35:55.463424", "MEAN_MOTION": 15.15842235, "ECCENTRICITY": 0.00156688, "INCLINATION": 45.0016, "RA_OF_ASC_NODE": 264.8217, "ARG_OF_PERICENTER": 244.0997, "MEAN_ANOMALY": 115.8267, "EPHEMERIS_TYPE": 0, "CLASSIFICATION_TYPE": "U", "NORAD_CAT_ID": 60452, "ELEMENT_SET_NO": 999, "REV_AT_EPOCH": 7501, "BSTAR": 0.00019211156, "MEAN_MOTION_DOT": 3.481e-05, "MEAN_MOTION_DDOT": 0}, "tle": {"line1": "1 60452U 24146A   25355.19161416  .00003481  00000+0  19211-3 0  9995", "line2": "2 60452  45.0016 264.8217 0015668 244.0997 115.8267 15.15842235 75015"}}, "geometry": {"type": "Point", "coordinates": [46.74683200115467, 30.32298620233807]}}, {"type": "Feature", "properties": {"norad_id": 60453, "name": "LEGION 4", "group": "resource", "lat": 30.956023741511117, "lon": 137.51730335940314, "alt_km": 517.6737169996177, "timestamp": "2025-12-21T14:40:47.568686+00:00", "meta": {"OBJECT_NAME": "LEGION 4", "OBJECT_ID": "2024-146B", "EPOCH": "2025-12-21T04:36:20.052864", "MEAN_MOTION": 15.15905103, "ECCENTRICITY": 0.00086353, "INCLINATION": 45.0392, "RA_OF_ASC_NODE": 356.5955, "ARG_OF_PERICENTER": 356.8359, "MEAN_ANOMALY": 3.2464, "EPHEMERIS_TYPE": 0, "CLASSIFICATION_TYPE": "U", "NORAD_CAT_ID": 60453, "ELEMENT_SET_NO": 999, "REV_AT_EPOCH": 7386, "BSTAR": 0.00021968256, "MEAN_MOTION_DOT": 4.019e-05, "MEAN_MOTION_DDOT": 0}, "tle": {"line1": "1 60453U 24146B   25355.19189876  .00004019  00000+0  21968-3 0  9996", "line2": "2 60453  45.0392 356.5955 0008635 356.8359   3.2464 15.15905103 73865"}}, "geometry": {"type": "Point", "coordinates": [137.51730335940314, 30.956023741511117]}}]}